{
  "type": "FeatureCollection",
  "features": [
    {
      "type": "Feature",
      "properties": {
        "norad_id": 67124,
        "name": "STARLINK-36195",
        "group": "last-30-days",
        "lat": -38.031518033211135,
        "lon": -158.5250212257472,
        "alt_km": 293.736310792483,
        "timestamp": "2025-12-22T05:49:02.189917+00:00",
        "meta_object_name": "STARLINK-36195",
        "meta_object_id": "2025-299Y",
        "meta_epoch": "2025-12-21T20:00:01.999008",
        "meta_mean_motion": 15.94983937,
        "meta_eccentricity": 0.0001773,
        "meta_inclination": 42.9994,
        "meta_ra_of_asc_node": 261.1074,
        "meta_arg_of_pericenter": 261.5968,
        "meta_mean_anomaly": 203.1354,
        "meta_ephemeris_type": 0,
        "meta_classification_type": "U",
        "meta_norad_cat_id": 67124,
        "meta_element_set_no": 999,
        "meta_rev_at_epoch": 227,
        "meta_bstar": -0.0038194,
        "meta_mean_motion_dot": -0.01533484,
        "meta_mean_motion_ddot": 0.00068056,
        "tle_line1": "1 67124U 25299Y   25355.83335647 -.01533484  68056-3 -38194-2 0  9991",
        "tle_line2": "2 67124  42.9994 261.1074 0001773 261.5968 203.1354 15.94983937  2272"
      },
      "geometry": {
        "type": "Point",
        "coordinates": [
          -158.5250212257472,
          -38.031518033211135
        ]
      }
    },
    {
      "type": "Feature",
      "properties": {
        "norad_id": 67125,
        "name": "STARLINK-36219",
        "group": "last-30-days",
        "lat": -37.4738378285981,
        "lon": -156.8075968270668,
        "alt_km": 293.3710764295565,
        "timestamp": "2025-12-22T05:49:02.189928+00:00",
        "meta_object_name": "STARLINK-36219",
        "meta_object_id": "2025-299Z",
        "meta_epoch": "2025-12-21T20:00:01.999008",
        "meta_mean_motion": 15.95047305,
        "meta_eccentricity": 0.0001849,
        "meta_inclination": 42.9993,
        "meta_ra_of_asc_node": 261.1035,
        "meta_arg_of_pericenter": 270.0288,
        "meta_mean_anomaly": 196.0813,
        "meta_ephemeris_type": 0,
        "meta_classification_type": "U",
        "meta_norad_cat_id": 67125,
        "meta_element_set_no": 999,
        "meta_rev_at_epoch": 227,
        "meta_bstar": -0.0037882,
        "meta_mean_motion_dot": -0.01526261,
        "meta_mean_motion_ddot": 0.00067511,
        "tle_line1": "1 67125U 25299Z   25355.83335647 -.01526261  67511-3 -37882-2 0  9995",
        "tle_line2": "2 67125  42.9993 261.1035 0001849 270.0288 196.0813 15.95047305  2274"
      },
      "geometry": {
        "type": "Point",
        "coordinates": [
          -156.8075968270668,
          -37.4738378285981
        ]
      }
    },
    {
      "type": "Feature",
      "properties": {
        "norad_id": 67126,
        "name": "STARLINK-36223",
        "group": "last-30-days",
        "lat": -36.748890631739435,
        "lon": -154.71508793009176,
        "alt_km": 293.30804898342376,
        "timestamp": "2025-12-22T05:49:02.189938+00:00",
        "meta_object_name": "STARLINK-36223",
        "meta_object_id": "2025-299AA",
        "meta_epoch": "2025-12-21T20:00:01.999008",
        "meta_mean_motion": 15.9516383,
        "meta_eccentricity": 0.0001712,
        "meta_inclination": 42.9993,
        "meta_ra_of_asc_node": 261.0992,
        "meta_arg_of_pericenter": 270.5786,
        "meta_mean_anomaly": 197.2405,
        "meta_ephemeris_type": 0,
        "meta_classification_type": "U",
        "meta_norad_cat_id": 67126,
        "meta_element_set_no": 999,
        "meta_rev_at_epoch": 227,
        "meta_bstar": -0.0040024,
        "meta_mean_motion_dot": -0.01621449,
        "meta_mean_motion_ddot": 0.00075554,
        "tle_line1": "1 67126U 25299AA  25355.83335647 -.01621449  75554-3 -40024-2 0  9998",
        "tle_line2": "2 67126  42.9993 261.0992 0001712 270.5786 197.2405 15.95163830  2275"
      },
      "geometry": {
        "type": "Point",
        "coordinates": [
          -154.71508793009176,
          -36.748890631739435
        ]
      }
    },
    {
      "type": "Feature",
      "properties": {
        "norad_id": 67127,
        "name": "STARLINK-36164",
        "group": "last-30-days",
        "lat": -36.071295661417786,
        "lon": -152.8810037364794,
        "alt_km": 293.15407314146705,
        "timestamp": "2025-12-22T05:49:02.189948+00:00",
        "meta_object_name": "STARLINK-36164",
        "meta_object_id": "2025-299AB",
        "meta_epoch": "2025-12-21T20:00:01.999008",
        "meta_mean_motion": 15.95235014,
        "meta_eccentricity": 0.0001748,
        "meta_inclination": 42.9994,
        "meta_ra_of_asc_node": 261.0955,
        "meta_arg_of_pericenter": 263.6247,
        "meta_mean_anomaly": 205.7089,
        "meta_ephemeris_type": 0,
        "meta_classification_type": "U",
        "meta_norad_cat_id": 67127,
        "meta_element_set_no": 999,
        "meta_rev_at_epoch": 227,
        "meta_bstar": -0.0039612,
        "meta_mean_motion_dot": -0.01611078,
        "meta_mean_motion_ddot": 0.00074719,
        "tle_line1": "1 67127U 25299AB  25355.83335647 -.01611078  74719-3 -39612-2 0  9999",
        "tle_line2": "2 67127  42.9994 261.0955 0001748 263.6247 205.7089 15.95235014  2277"
      },
      "geometry": {
        "type": "Point",
        "coordinates": [
          -152.8810037364794,
          -36.071295661417786
        ]
      }
    },
    {
      "type": "Feature",
      "properties": {
        "norad_id": 67128,
        "name": "STARLINK-35685",
        "group": "last-30-days",
        "lat": -33.898715748950046,
        "lon": -147.61923325863134,
        "alt_km": 292.315848345972,
        "timestamp": "2025-12-22T05:49:02.189960+00:00",
        "meta_object_name": "STARLINK-35685",
        "meta_object_id": "2025-299AC",
        "meta_epoch": "2025-12-21T20:00:01.999008",
        "meta_mean_motion": 15.95455879,
        "meta_eccentricity": 0.0001786,
        "meta_inclination": 42.999,
        "meta_ra_of_asc_node": 261.084,
        "meta_arg_of_pericenter": 263.7103,
        "meta_mean_anomaly": 210.0937,
        "meta_ephemeris_type": 0,
        "meta_classification_type": "U",
        "meta_norad_cat_id": 67128,
        "meta_element_set_no": 999,
        "meta_rev_at_epoch": 227,
        "meta_bstar": -0.0037307,
        "meta_mean_motion_dot": -0.01536534,
        "meta_mean_motion_ddot": 0.00068632,
        "tle_line1": "1 67128U 25299AC  25355.83335647 -.01536534  68632-3 -37307-2 0  9999",
        "tle_line2": "2 67128  42.9990 261.0840 0001786 263.7103 210.0937 15.95455879  2275"
      },
      "geometry": {
        "type": "Point",
        "coordinates": [
          -147.61923325863134,
          -33.898715748950046
        ]
      }
    },
    {
      "type": "Feature",
      "properties": {
        "norad_id": 67129,
        "name": "STARLINK-36214",
        "group": "last-30-days",
        "lat": -35.22352103474521,
        "lon": -150.72760477147895,
        "alt_km": 292.8616566545343,
        "timestamp": "2025-12-22T05:49:02.189973+00:00",
        "meta_object_name": "STARLINK-36214",
        "meta_object_id": "2025-299AD",
        "meta_epoch": "2025-12-21T20:00:01.999008",
        "meta_mean_motion": 15.95326123,
        "meta_eccentricity": 0.0001772,
        "meta_inclination": 42.9992,
        "meta_ra_of_asc_node": 261.0906,
        "meta_arg_of_pericenter": 265.951,
        "meta_mean_anomaly": 205.2074,
        "meta_ephemeris_type": 0,
        "meta_classification_type": "U",
        "meta_norad_cat_id": 67129,
        "meta_element_set_no": 999,
        "meta_rev_at_epoch": 227,
        "meta_bstar": -0.0039776,
        "meta_mean_motion_dot": -0.01625566,
        "meta_mean_motion_ddot": 0.00076033,
        "tle_line1": "1 67129U 25299AD  25355.83335647 -.01625566  76033-3 -39776-2 0  9990",
        "tle_line2": "2 67129  42.9992 261.0906 0001772 265.9510 205.2074 15.95326123  2279"
      },
      "geometry": {
        "type": "Point",
        "coordinates": [
          -150.72760477147895,
          -35.22352103474521
        ]
      }
    },
    {
      "type": "Feature",
      "properties": {
        "norad_id": 67130,
        "name": "STARLINK-36194",
        "group": "last-30-days",
        "lat": -31.15287461508995,
        "lon": -141.93099176959194,
        "alt_km": 292.02030304726395,
        "timestamp": "2025-12-22T05:49:02.189983+00:00",
        "meta_object_name": "STARLINK-36194",
        "meta_object_id": "2025-299AE",
        "meta_epoch": "2025-12-21T20:00:01.999008",
        "meta_mean_motion": 15.95555944,
        "meta_eccentricity": 0.0001746,
        "meta_inclination": 42.9991,
        "meta_ra_of_asc_node": 261.0721,
        "meta_arg_of_pericenter": 265.1111,
        "meta_mean_anomaly": 214.1006,
        "meta_ephemeris_type": 0,
        "meta_classification_type": "U",
        "meta_norad_cat_id": 67130,
        "meta_element_set_no": 999,
        "meta_rev_at_epoch": 227,
        "meta_bstar": -0.0037756,
        "meta_mean_motion_dot": -0.01563124,
        "meta_mean_motion_ddot": 0.00070905,
        "tle_line1": "1 67130U 25299AE  25355.83335647 -.01563124  70905-3 -37756-2 0  9991",
        "tle_line2": "2 67130  42.9991 261.0721 0001746 265.1111 214.1006 15.95555944  2274"
      },
      "geometry": {
        "type": "Point",
        "coordinates": [
          -141.93099176959194,
          -31.15287461508995
        ]
      }
    }
  ]
}